ONEWEB-0685             
1 54679U 22166AP  25211.53422783  .00001139  00000+0  27269-2 0  9994
2 54679  87.9273 308.1625 0002037 109.9448 250.1906 13.21819486128929
ONEWEB-0712             
1 54680U 22166AQ  25211.59286908  .00000166  00000+0  40055-3 0  9997
2 54680  87.9048 292.8658 0002606  95.5862 264.5566 13.16596226129748
ONEWEB-0714             
1 54681U 22166AR  25211.31343747  .00000006  00000+0 -17266-4 0  9996
2 54681  87.9278 308.1998 0002145 103.4259 256.7114 13.21826526129016
ONEWEB-0532             
1 55140U 23004A   25211.59553267  .00000013  00000+0 -45531-7 0  9996
2 55140  87.9039  69.8643 0001363  91.4511 268.6776 13.17649592125235
ONEWEB-0533             
1 55141U 23004B   25211.58411491 -.00000290  00000+0 -84119-3 0  9997
2 55141  87.8860  54.5962 0001884  91.2787 268.8557 13.12442864125870
ONEWEB-0541             
1 55142U 23004C   25211.59139932 -.00000367  00000+0 -10716-2 0  9992
2 55142  87.8812  85.1461 0001744  79.9487 280.1838 13.11416204123793
ONEWEB-0543             
1 55143U 23004D   25211.52331396  .00000037  00000+0  60636-4 0  9994
2 55143  87.9111  39.4136 0002094  87.8468 272.2903 13.18688870127307
ONEWEB-0544             
1 55144U 23004E   25211.59259051  .00000048  00000+0  89506-4 0  9998
2 55144  87.9112  39.3899 0001895  82.2543 277.8804 13.18687424127311
